{
    "links": {
        "self": "http://www.neowsapp.com/rest/v1/neo/3825139?api_key=iIulBulltgU6a56xZRHN4H3l9WmuAYTsLGpBGhQ2"
    },
    "id": "3825139",
    "neo_reference_id": "3825139",
    "name": "(2018 LD3)",
    "designation": "2018 LD3",
    "nasa_jpl_url": "http://ssd.jpl.nasa.gov/sbdb.cgi?sstr=3825139",
    "absolute_magnitude_h": 23.6,
    "estimated_diameter": {
        "kilometers": {
            "estimated_diameter_min": 0.0506471459,
            "estimated_diameter_max": 0.1132504611
        },
        "meters": {
            "estimated_diameter_min": 50.6471458835,
            "estimated_diameter_max": 113.2504610618
        },
        "miles": {
            "estimated_diameter_min": 0.0314706677,
            "estimated_diameter_max": 0.0703705522
        },
        "feet": {
            "estimated_diameter_min": 166.1651821003,
            "estimated_diameter_max": 371.5566426699
        }
    },
    "is_potentially_hazardous_asteroid": false,
    "close_approach_data": [
        {
            "close_approach_date": "2013-06-22",
            "close_approach_date_full": "2013-Jun-22 00:12",
            "epoch_date_close_approach": 1371859920000,
            "relative_velocity": {
                "kilometers_per_second": "14.6253582151",
                "kilometers_per_hour": "52651.2895742693",
                "miles_per_hour": "32715.4637913008"
            },
            "miss_distance": {
                "astronomical": "0.0528636587",
                "lunar": "20.5639632343",
                "kilometers": "7908290.741926969",
                "miles": "4913984.0025674122"
            },
            "orbiting_body": "Earth"
        },
        {
            "close_approach_date": "2018-06-24",
            "close_approach_date_full": "2018-Jun-24 11:55",
            "epoch_date_close_approach": 1529841300000,
            "relative_velocity": {
                "kilometers_per_second": "14.1425572837",
                "kilometers_per_hour": "50913.2062213006",
                "miles_per_hour": "31635.4863878965"
            },
            "miss_distance": {
                "astronomical": "0.0505395232",
                "lunar": "19.6598745248",
                "kilometers": "7560605.021535584",
                "miles": "4697942.1139116992"
            },
            "orbiting_body": "Earth"
        },
        {
            "close_approach_date": "2018-11-02",
            "close_approach_date_full": "2018-Nov-02 09:50",
            "epoch_date_close_approach": 1541152200000,
            "relative_velocity": {
                "kilometers_per_second": "11.2665749225",
                "kilometers_per_hour": "40559.6697210551",
                "miles_per_hour": "25202.2014441745"
            },
            "miss_distance": {
                "astronomical": "0.4768053885",
                "lunar": "185.4772961265",
                "kilometers": "71329070.524122495",
                "miles": "44321829.193160631"
            },
            "orbiting_body": "Earth"
        },
        {
            "close_approach_date": "2023-06-27",
            "close_approach_date_full": "2023-Jun-27 13:21",
            "epoch_date_close_approach": 1687872060000,
            "relative_velocity": {
                "kilometers_per_second": "13.7139530923",
                "kilometers_per_hour": "49370.231132199",
                "miles_per_hour": "30676.7416721155"
            },
            "miss_distance": {
                "astronomical": "0.0951093256",
                "lunar": "36.9975276584",
                "kilometers": "14228152.526896472",
                "miles": "8840964.0192644336"
            },
            "orbiting_body": "Earth"
        }
    ],
    "orbital_data": {
        "orbit_id": "8",
        "orbit_determination_date": "2018-07-24 06:23:56",
        "first_observation_date": "2018-06-08",
        "last_observation_date": "2018-06-23",
        "data_arc_in_days": 15,
        "observations_used": 59,
        "orbit_uncertainty": "8",
        "minimum_orbit_intersection": ".0454376",
        "jupiter_tisserand_invariant": "4.601",
        "epoch_osculation": "2458282.5",
        "eccentricity": ".283575270726776",
        "semi_major_axis": "1.407289675612709",
        "inclination": "25.05270231764353",
        "ascending_node_longitude": "89.92421709837986",
        "orbital_period": "609.7807065463954",
        "perihelion_distance": "1.008217124859838",
        "perihelion_argument": "220.5353739884349",
        "aphelion_distance": "1.806362226365579",
        "perihelion_time": "2458330.417716697215",
        "mean_anomaly": "331.7105217895494",
        "mean_motion": ".5903761731638344",
        "equinox": "J2000",
        "orbit_class": {
            "orbit_class_type": "APO",
            "orbit_class_description": "Near-Earth asteroid orbits which cross the Earth’s orbit similar to that of 1862 Apollo",
            "orbit_class_range": "a (semi-major axis) > 1.0 AU; q (perihelion) < 1.017 AU"
        }
    },
    "is_sentry_object": false
}